ORBCOMM FM20            
1 25416U 98046D   25337.42848672  .00001609  00000+0  57783-3 0  9994
2 25416  44.9933  99.5566 0001122 165.2655 194.8226 14.37628157428615
ORBCOMM FM16            
1 25417U 98046E   25337.49408770  .00002337  00000+0  78813-3 0  9999
2 25417  44.9926  88.5084 0003363  93.9779 266.1455 14.39485692428641
ORBCOMM FM15            
1 25418U 98046F   25337.37413918  .00001994  00000+0  68421-3 0  9999
2 25418  44.9963  94.7397 0003253  94.1784 265.9436 14.39110883428616
ORBCOMM FM14            
1 25419U 98046G   25337.34703669  .00002216  00000+0  74907-3 0  9996
2 25419  44.9944  92.5925 0001890 102.0289 258.0772 14.39525359428583
ORBCOMM FM13            
1 25420U 98046H   25337.40522007  .00001885  00000+0  66183-3 0  9998
2 25420  44.9965 102.0024 0003842  60.4079 299.7151 14.38157613427594
ORBCOMM FM21            
1 25475U 98053A   25337.31430029  .00001223  00000+0  44939-3 0  9999
2 25475  45.0066 188.3428 0001893  13.5892 346.5007 14.37762676421583
ORBCOMM FM22            
1 25476U 98053B   25337.29221369  .00001511  00000+0  53169-3 0  9997
2 25476  45.0055 181.8686 0003375   6.5881 353.5012 14.38926717421621
ORBCOMM FM23            
1 25477U 98053C   25336.87415348  .00001235  00000+0  45110-3 0  9993
2 25477  45.0065 192.2868 0002850   0.2302 359.8548 14.37996807421671
